OBJECT_NAME,OBJECT_ID,EPOCH,MEAN_MOTION,ECCENTRICITY,INCLINATION,RA_OF_ASC_NODE,ARG_OF_PERICENTER,MEAN_ANOMALY,EPHEMERIS_TYPE,CLASSIFICATION_TYPE,NORAD_CAT_ID,ELEMENT_SET_NO,REV_AT_EPOCH,BSTAR,MEAN_MOTION_DOT,MEAN_MOTION_DDOT
OSCAR 7 (AO-7),1974-089B,2026-06-11T07:22:08.649984,12.53697971,.00125104,101.9901,175.4923,141.0738,232.1031,0,U,7530,999,35978,.10908826E-3,-.29E-6,0
PHASE 3B (AO-10),1983-058B,2026-06-07T04:08:14.383680,2.05872980,.60142661,25.9048,221.2242,112.9115,319.2048,0,U,14129,999,29528,0,-.194E-5,0
UOSAT 2 (UO-11),1984-021B,2026-06-10T21:53:20.502240,14.90767762,.00070494,97.8055,127.5569,193.6299,166.4730,0,U,14781,999,25619,.12569083E-3,.118E-4,0
LUSAT (LO-19),1990-005G,2026-06-11T06:02:19.880736,14.34121336,.00108057,98.8852,183.8935,219.4308,140.6090,0,U,20442,999,90154,.50787844E-4,.95E-6,0
EYESAT A (AO-27),1993-061C,2026-06-11T03:01:49.461888,14.30940634,.00094483,98.6880,229.5418,115.4791,244.7370,0,U,22825,999,70613,.43871922E-4,.71E-6,0
ITAMSAT (IO-26),1993-061D,2026-06-11T04:15:26.519328,14.31367352,.00100598,98.6828,229.5098,100.5530,259.6787,0,U,22826,999,70645,.42972645E-4,.69E-6,0
RADIO ROSTO (RS15),1994-085A,2026-06-11T04:10:17.375808,11.27583624,.0155761,64.8187,312.9415,4.9877,355.2557,0,U,23439,999,29522,-.21597611E-4,-.43E-6,0
JAS-2 (FO-29),1996-046B,2026-06-11T04:11:19.133664,13.53273891,.03508246,98.5245,11.8704,111.9931,251.8871,0,U,24278,999,47235,.42847064E-4,.1E-6,0
TECHSAT 1B (GO-32),1998-043D,2026-06-11T05:37:16.529376,14.24427245,.00007143,99.0066,154.8428,177.8276,182.2905,0,U,25397,999,45048,.39618044E-4,.45E-6,0
ISS (ZARYA),1998-067A,2026-06-11T03:01:20.659584,15.49161426,.00050923,51.6353,330.0904,172.2857,187.8210,0,U,25544,999,57081,.53892498E-4,.2535E-4,0
PCSAT (NO-44),2001-043C,2026-06-11T00:18:35.995104,14.31953913,.00060989,67.0510,260.2410,264.4178,95.6229,0,U,26931,999,28956,.54402324E-4,.63E-6,0
SAUDISAT 1C (SO-50),2002-058C,2026-06-11T05:18:34.227072,14.83033486,.00754096,64.5506,147.4439,263.5789,95.6727,0,U,27607,999,26357,.1165672E-3,.841E-5,0
CUTE-1 (CO-55),2003-031E,2026-06-10T23:54:00.451584,14.24331910,.00091113,98.6735,170.6324,196.3678,163.7208,0,U,27844,999,19079,.12457809E-3,.244E-5,0
CUBESAT XI-IV (CO-57),2003-031J,2026-06-10T13:25:40.037088,14.23617305,.00086366,98.6767,169.9197,217.5980,142.4596,0,U,27848,999,19043,.11308922E-3,.214E-5,0
MOZHAETS 4 (RS22),2003-042A,2026-06-11T07:35:11.153184,14.73457531,.00100494,98.3474,346.5095,290.5789,194.1097,0,U,27939,999,21468,.15487601E-3,.952E-5,0
CUBESAT XI-V,2005-043F,2026-06-10T16:13:15.786624,14.72614047,.00132407,98.2977,317.1612,222.2954,137.7233,0,U,28895,999,10079,.2044513E-3,.125E-4,0
CUTE-1.7+APD II (CO-65),2008-021C,2026-06-11T05:11:21.776064,15.09396423,.00103169,97.8272,143.5105,56.6803,303.5412,0,U,32785,999,98429,.28480267E-3,.449E-4,0
SEEDS II (CO-66),2008-021J,2026-06-11T06:13:53.331456,15.32546772,.00019675,97.7517,159.8749,23.1856,336.9473,0,U,32791,999,98638,.48819833E-3,.15274E-3,0
YUBILEINY (RS30),2008-025A,2026-06-11T07:17:49.344576,12.43178948,.00190928,82.5050,359.1008,327.1548,32.8344,0,U,32953,999,81896,.17016992E-3,.33E-6,0
KKS-1 (KISEKI),2009-002H,2026-06-11T04:25:50.766240,14.83108343,.00068658,98.1193,84.5317,318.6563,41.4129,0,U,33499,999,93530,.14298681E-3,.1109E-4,0
SWISSCUBE,2009-051B,2026-06-11T05:11:30.525792,14.62470076,.00056291,98.4041,70.0006,224.4191,135.6559,0,U,35932,999,88828,.16843955E-3,.804E-5,0
BEESAT-1,2009-051C,2026-06-11T05:20:37.623552,14.61710634,.0003964,98.3971,69.6549,240.4948,119.5857,0,U,35933,999,88831,.14238906E-3,.66E-5,0
ITUPSAT1,2009-051E,2026-06-11T04:59:59.441568,14.60431670,.00061318,98.4055,68.8386,256.4621,103.5895,0,U,35935,999,88786,.13682513E-3,.614E-5,0
XIWANG-1 (HOPE-1),2009-072B,2026-06-11T05:45:31.856256,13.16439032,.00068141,100.4019,116.1667,246.4727,113.5671,0,U,36122,999,79222,.36448647E-3,.95E-6,0
O/OREOS (USA 219),2010-062C,2026-06-11T05:39:33.935616,14.93718504,.00124306,71.9707,93.8194,76.0877,284.1675,0,U,37224,999,11575,.18825653E-3,.1933E-4,0
JUGNU,2011-058B,2026-06-10T20:49:05.609856,14.13775053,.00185632,19.9621,346.8221,6.6957,22.8320,0,U,37839,999,75813,.68784482E-4,.399E-5,0
SRMSAT,2011-058D,2026-06-11T03:15:11.320416,14.11574277,.00119167,19.9714,96.0961,137.3112,254.6975,0,U,37841,999,75696,.482744E-4,.354E-5,0
STRAND-1,2013-009E,2026-06-10T17:17:24.189504,14.37159492,.00074787,98.3921,342.1141,247.3445,112.6951,0,U,39090,999,69613,.1009267E-3,.257E-5,0
ZACUBE-1 (TSHEPISOSAT),2013-066B,2026-06-11T03:23:55.287168,15.01151583,.00401874,97.8086,124.4456,268.8905,90.7715,0,U,39417,999,67982,.24354498E-3,.311E-4,0
GOMX-1,2013-066Q,2026-06-11T06:16:59.025792,14.69437683,.01301751,97.6495,3.0988,96.3401,265.2649,0,U,39430,999,66904,.27627428E-3,.1813E-4,0
